{
  "type": "FeatureCollection",
  "features": [
    {
      "type": "Feature",
      "properties": {
        "norad_id": 37238,
        "name": "INTELSAT 17 (IS-17)",
        "group": "intelsat",
        "lat": -0.02389094486101124,
        "lon": -128.22642404852843,
        "alt_km": 35776.744000434584,
        "timestamp": "2025-12-10T05:46:13.465337+00:00",
        "meta_object_name": "INTELSAT 17 (IS-17)",
        "meta_object_id": "2010-065B",
        "meta_epoch": "2025-12-09T17:58:38.861760",
        "meta_mean_motion": 1.00272586,
        "meta_eccentricity": 0.0002453,
        "meta_inclination": 0.0143,
        "meta_ra_of_asc_node": 286.032,
        "meta_arg_of_pericenter": 334.613,
        "meta_mean_anomaly": 153.7653,
        "meta_ephemeris_type": 0,
        "meta_classification_type": "U",
        "meta_norad_cat_id": 37238,
        "meta_element_set_no": 999,
        "meta_rev_at_epoch": 5134,
        "meta_bstar": 0,
        "meta_mean_motion_dot": 1e-08,
        "meta_mean_motion_ddot": 0,
        "tle_line1": "1 37238U 10065B   25343.74906090  .00000001  00000+0  00000+0 0  9996",
        "tle_line2": "2 37238   0.0143 286.0320 0002453 334.6130 153.7653  1.00272586 51342"
      },
      "geometry": {
        "type": "Point",
        "coordinates": [
          -128.22642404852843,
          -0.02389094486101124
        ]
      }
    },
    {
      "type": "Feature",
      "properties": {
        "norad_id": 37392,
        "name": "INTELSAT 28 (IS-28)",
        "group": "intelsat",
        "lat": 1.0041248992845233,
        "lon": 134.03220470738398,
        "alt_km": 35796.517336992634,
        "timestamp": "2025-12-10T05:46:13.465349+00:00",
        "meta_object_name": "INTELSAT 28 (IS-28)",
        "meta_object_id": "2011-016A",
        "meta_epoch": "2025-12-09T09:59:50.732160",
        "meta_mean_motion": 1.00272298,
        "meta_eccentricity": 0.00039831,
        "meta_inclination": 1.3162,
        "meta_ra_of_asc_node": 85.0937,
        "meta_arg_of_pericenter": 178.1199,
        "meta_mean_anomaly": 293.4552,
        "meta_ephemeris_type": 0,
        "meta_classification_type": "U",
        "meta_norad_cat_id": 37392,
        "meta_element_set_no": 999,
        "meta_rev_at_epoch": 5138,
        "meta_bstar": 0,
        "meta_mean_motion_dot": -2.23e-06,
        "meta_mean_motion_ddot": 0,
        "tle_line1": "1 37392U 11016A   25343.41655940 -.00000223  00000+0  00000+0 0  9990",
        "tle_line2": "2 37392   1.3162  85.0937 0003983 178.1199 293.4552  1.00272298 51388"
      },
      "geometry": {
        "type": "Point",
        "coordinates": [
          134.03220470738398,
          1.0041248992845233
        ]
      }
    },
    {
      "type": "Feature",
      "properties": {
        "norad_id": 37834,
        "name": "INTELSAT 18 (IS-18)",
        "group": "intelsat",
        "lat": 0.0021828292568489747,
        "lon": -14.208423077131114,
        "alt_km": 35784.62707432353,
        "timestamp": "2025-12-10T05:46:13.465360+00:00",
        "meta_object_name": "INTELSAT 18 (IS-18)",
        "meta_object_id": "2011-056A",
        "meta_epoch": "2025-12-09T14:25:47.756352",
        "meta_mean_motion": 1.00271498,
        "meta_eccentricity": 0.0002054,
        "meta_inclination": 0.0172,
        "meta_ra_of_asc_node": 343.0043,
        "meta_arg_of_pericenter": 282.6647,
        "meta_mean_anomaly": 209.3657,
        "meta_ephemeris_type": 0,
        "meta_classification_type": "U",
        "meta_norad_cat_id": 37834,
        "meta_element_set_no": 999,
        "meta_rev_at_epoch": 5191,
        "meta_bstar": 0,
        "meta_mean_motion_dot": 5.5e-07,
        "meta_mean_motion_ddot": 0,
        "tle_line1": "1 37834U 11056A   25343.60124718  .00000055  00000+0  00000+0 0  9992",
        "tle_line2": "2 37834   0.0172 343.0043 0002054 282.6647 209.3657  1.00271498 51910"
      },
      "geometry": {
        "type": "Point",
        "coordinates": [
          -14.208423077131114,
          0.0021828292568489747
        ]
      }
    },
    {
      "type": "Feature",
      "properties": {
        "norad_id": 38098,
        "name": "INTELSAT 22 (IS-22)",
        "group": "intelsat",
        "lat": -0.03442987575362427,
        "lon": -122.10823422422418,
        "alt_km": 35779.47427902767,
        "timestamp": "2025-12-10T05:46:13.465372+00:00",
        "meta_object_name": "INTELSAT 22 (IS-22)",
        "meta_object_id": "2012-011A",
        "meta_epoch": "2025-12-09T17:50:38.679072",
        "meta_mean_motion": 1.00274462,
        "meta_eccentricity": 0.0001559,
        "meta_inclination": 0.0178,
        "meta_ra_of_asc_node": 314.4402,
        "meta_arg_of_pericenter": 310.9545,
        "meta_mean_anomaly": 153.1189,
        "meta_ephemeris_type": 0,
        "meta_classification_type": "U",
        "meta_norad_cat_id": 38098,
        "meta_element_set_no": 999,
        "meta_rev_at_epoch": 528,
        "meta_bstar": 0,
        "meta_mean_motion_dot": -5.7e-07,
        "meta_mean_motion_ddot": 0,
        "tle_line1": "1 38098U 12011A   25343.74350323 -.00000057  00000+0  00000+0 0  9998",
        "tle_line2": "2 38098   0.0178 314.4402 0001559 310.9545 153.1189  1.00274462  5280"
      },
      "geometry": {
        "type": "Point",
        "coordinates": [
          -122.10823422422418,
          -0.03442987575362427
        ]
      }
    },
    {
      "type": "Feature",
      "properties": {
        "norad_id": 38356,
        "name": "INTELSAT 19 (IS-19)",
        "group": "intelsat",
        "lat": -0.00525234909498233,
        "lon": -28.18585610601043,
        "alt_km": 35779.85413891171,
        "timestamp": "2025-12-10T05:46:13.465384+00:00",
        "meta_object_name": "INTELSAT 19 (IS-19)",
        "meta_object_id": "2012-030A",
        "meta_epoch": "2025-12-09T13:57:53.515296",
        "meta_mean_motion": 1.00271733,
        "meta_eccentricity": 0.0003532,
        "meta_inclination": 0.0089,
        "meta_ra_of_asc_node": 343.5427,
        "meta_arg_of_pericenter": 282.9405,
        "meta_mean_anomaly": 187.5649,
        "meta_ephemeris_type": 0,
        "meta_classification_type": "U",
        "meta_norad_cat_id": 38356,
        "meta_element_set_no": 999,
        "meta_rev_at_epoch": 4855,
        "meta_bstar": 0,
        "meta_mean_motion_dot": -5.4e-07,
        "meta_mean_motion_ddot": 0,
        "tle_line1": "1 38356U 12030A   25343.58186939 -.00000054  00000+0  00000+0 0  9995",
        "tle_line2": "2 38356   0.0089 343.5427 0003532 282.9405 187.5649  1.00271733 48551"
      },
      "geometry": {
        "type": "Point",
        "coordinates": [
          -28.18585610601043,
          -0.00525234909498233
        ]
      }
    },
    {
      "type": "Feature",
      "properties": {
        "norad_id": 38740,
        "name": "INTELSAT 20 (IS-20)",
        "group": "intelsat",
        "lat": -0.0033897152748932464,
        "lon": -125.70333458367745,
        "alt_km": 35779.79617313085,
        "timestamp": "2025-12-10T05:46:13.465395+00:00",
        "meta_object_name": "INTELSAT 20 (IS-20)",
        "meta_object_id": "2012-043A",
        "meta_epoch": "2025-12-09T13:53:50.815968",
        "meta_mean_motion": 1.00268403,
        "meta_eccentricity": 0.0002557,
        "meta_inclination": 0.0087,
        "meta_ra_of_asc_node": 90.6017,
        "meta_arg_of_pericenter": 95.7076,
        "meta_mean_anomaly": 169.2304,
        "meta_ephemeris_type": 0,
        "meta_classification_type": "U",
        "meta_norad_cat_id": 38740,
        "meta_element_set_no": 999,
        "meta_rev_at_epoch": 4884,
        "meta_bstar": 0,
        "meta_mean_motion_dot": -2.1e-07,
        "meta_mean_motion_ddot": 0,
        "tle_line1": "1 38740U 12043A   25343.57906037 -.00000021  00000+0  00000+0 0  9998",
        "tle_line2": "2 38740   0.0087  90.6017 0002557  95.7076 169.2304  1.00268403 48848"
      },
      "geometry": {
        "type": "Point",
        "coordinates": [
          -125.70333458367745,
          -0.0033897152748932464
        ]
      }
    },
    {
      "type": "Feature",
      "properties": {
        "norad_id": 38749,
        "name": "INTELSAT 21 (IS-21)",
        "group": "intelsat",
        "lat": 0.02434842365255152,
        "lon": 107.75768926277871,
        "alt_km": 35794.29034325428,
        "timestamp": "2025-12-10T05:46:13.465407+00:00",
        "meta_object_name": "INTELSAT 21 (IS-21)",
        "meta_object_id": "2012-045A",
        "meta_epoch": "2025-12-09T11:35:04.111008",
        "meta_mean_motion": 1.002704,
        "meta_eccentricity": 0.0002159,
        "meta_inclination": 0.0121,
        "meta_ra_of_asc_node": 36.6822,
        "meta_arg_of_pericenter": 218.8599,
        "meta_mean_anomaly": 298.7001,
        "meta_ephemeris_type": 0,
        "meta_classification_type": "U",
        "meta_norad_cat_id": 38749,
        "meta_element_set_no": 999,
        "meta_rev_at_epoch": 4862,
        "meta_bstar": 0,
        "meta_mean_motion_dot": -2.83e-06,
        "meta_mean_motion_ddot": 0,
        "tle_line1": "1 38749U 12045A   25343.48268647 -.00000283  00000+0  00000+0 0  9997",
        "tle_line2": "2 38749   0.0121  36.6822 0002159 218.8599 298.7001  1.00270400 48624"
      },
      "geometry": {
        "type": "Point",
        "coordinates": [
          107.75768926277871,
          0.02434842365255152
        ]
      }
    }
  ]
}